[{"OBJECT_NAME":"STARLINK-34377","OBJECT_ID":"2025-120Z","EPOCH":"2026-03-09T12:47:18.513888","MEAN_MOTION":15.30196282,"ECCENTRICITY":0.00015182,"INCLINATION":53.159,"RA_OF_ASC_NODE":117.3068,"ARG_OF_PERICENTER":91.6174,"MEAN_ANOMALY":268.5,"EPHEMERIS_TYPE":0,"CLASSIFICATION_TYPE":"U","NORAD_CAT_ID":64279,"ELEMENT_SET_NO":999,"REV_AT_EPOCH":4389,"BSTAR":0.0010629749,"MEAN_MOTION_DOT":0.00031252,"MEAN_MOTION_DDOT":0},{"OBJECT_NAME":"POEM","OBJECT_ID":"2022-072E","EPOCH":"2026-03-08T08:06:01.299456","MEAN_MOTION":15.22764653,"ECCENTRICITY":0.00236837,"INCLINATION":9.9515,"RA_OF_ASC_NODE":116.6548,"ARG_OF_PERICENTER":142.2805,"MEAN_ANOMALY":217.9074,"EPHEMERIS_TYPE":0,"CLASSIFICATION_TYPE":"U","NORAD_CAT_ID":52939,"ELEMENT_SET_NO":999,"REV_AT_EPOCH":20410,"BSTAR":0.00045784559,"MEAN_MOTION_DOT":0.00012084,"MEAN_MOTION_DDOT":0}]
